{
  "type": "FeatureCollection",
  "features": [
    {
      "type": "Feature",
      "properties": {
        "norad_id": 31319,
        "name": "FENGYUN 1C DEB",
        "group": "fengyun-1c-debris",
        "lat": -44.53498347640062,
        "lon": 64.36326863776101,
        "alt_km": 1103.0766688465574,
        "timestamp": "2025-12-20T22:39:10.907429+00:00",
        "meta_object_name": "FENGYUN 1C DEB",
        "meta_object_id": "1999-025BPX",
        "meta_epoch": "2025-12-19T11:29:54.645216",
        "meta_mean_motion": 13.75830956,
        "meta_eccentricity": 0.017066,
        "meta_inclination": 98.8311,
        "meta_ra_of_asc_node": 251.8032,
        "meta_arg_of_pericenter": 69.0496,
        "meta_mean_anomaly": 104.308,
        "meta_ephemeris_type": 0,
        "meta_classification_type": "U",
        "meta_norad_cat_id": 31319,
        "meta_element_set_no": 999,
        "meta_rev_at_epoch": 93780,
        "meta_bstar": 0.00017244,
        "meta_mean_motion_dot": 1.47e-06,
        "meta_mean_motion_ddot": 0,
        "tle_line1": "1 31319U 99025BPX 25353.47910469  .00000147  00000+0  17244-3 0  9992",
        "tle_line2": "2 31319  98.8311 251.8032 0170660  69.0496 104.3080 13.75830956937804"
      },
      "geometry": {
        "type": "Point",
        "coordinates": [
          64.36326863776101,
          -44.53498347640062
        ]
      }
    },
    {
      "type": "Feature",
      "properties": {
        "norad_id": 31321,
        "name": "FENGYUN 1C DEB",
        "group": "fengyun-1c-debris",
        "lat": -17.286543739669828,
        "lon": -109.11737773789744,
        "alt_km": 835.062370894173,
        "timestamp": "2025-12-20T22:39:10.907438+00:00",
        "meta_object_name": "FENGYUN 1C DEB",
        "meta_object_id": "1999-025BPZ",
        "meta_epoch": "2025-12-20T11:31:59.914848",
        "meta_mean_motion": 14.13827217,
        "meta_eccentricity": 0.00303351,
        "meta_inclination": 98.733,
        "meta_ra_of_asc_node": 73.1719,
        "meta_arg_of_pericenter": 155.8527,
        "meta_mean_anomaly": 204.4075,
        "meta_ephemeris_type": 0,
        "meta_classification_type": "U",
        "meta_norad_cat_id": 31321,
        "meta_element_set_no": 999,
        "meta_rev_at_epoch": 57493,
        "meta_bstar": 0.00012067042,
        "meta_mean_motion_dot": 1.87e-06,
        "meta_mean_motion_ddot": 0,
        "tle_line1": "1 31321U 99025BPZ 25354.48055457  .00000187  00000+0  12067-3 0  9996",
        "tle_line2": "2 31321  98.7330  73.1719 0030335 155.8527 204.4075 14.13827217574933"
      },
      "geometry": {
        "type": "Point",
        "coordinates": [
          -109.11737773789744,
          -17.286543739669828
        ]
      }
    },
    {
      "type": "Feature",
      "properties": {
        "norad_id": 31322,
        "name": "FENGYUN 1C DEB",
        "group": "fengyun-1c-debris",
        "lat": 67.12197680858189,
        "lon": -101.1827302464465,
        "alt_km": 1074.7722131330556,
        "timestamp": "2025-12-20T22:39:10.907447+00:00",
        "meta_object_name": "FENGYUN 1C DEB",
        "meta_object_id": "1999-025BQA",
        "meta_epoch": "2025-12-17T10:15:00.213120",
        "meta_mean_motion": 13.72998867,
        "meta_eccentricity": 0.02382994,
        "meta_inclination": 98.5728,
        "meta_ra_of_asc_node": 54.7189,
        "meta_arg_of_pericenter": 357.7068,
        "meta_mean_anomaly": 17.858,
        "meta_ephemeris_type": 0,
        "meta_classification_type": "U",
        "meta_norad_cat_id": 31322,
        "meta_element_set_no": 999,
        "meta_rev_at_epoch": 62340,
        "meta_bstar": 0.00018215464,
        "meta_mean_motion_dot": 1.68e-06,
        "meta_mean_motion_ddot": 0,
        "tle_line1": "1 31322U 99025BQA 25351.42708580  .00000168  00000+0  18215-3 0  9990",
        "tle_line2": "2 31322  98.5728  54.7189 0238299 357.7068  17.8580 13.72998867623409"
      },
      "geometry": {
        "type": "Point",
        "coordinates": [
          -101.1827302464465,
          67.12197680858189
        ]
      }
    },
    {
      "type": "Feature",
      "properties": {
        "norad_id": 31323,
        "name": "FENGYUN 1C DEB",
        "group": "fengyun-1c-debris",
        "lat": -18.252416250736868,
        "lon": -149.09128579405603,
        "alt_km": 822.1450856523097,
        "timestamp": "2025-12-20T22:39:10.907456+00:00",
        "meta_object_name": "FENGYUN 1C DEB",
        "meta_object_id": "1999-025BQB",
        "meta_epoch": "2025-12-12T20:17:42.698976",
        "meta_mean_motion": 14.27591812,
        "meta_eccentricity": 0.00313733,
        "meta_inclination": 99.4214,
        "meta_ra_of_asc_node": 25.3246,
        "meta_arg_of_pericenter": 79.5452,
        "meta_mean_anomaly": 280.9259,
        "meta_ephemeris_type": 0,
        "meta_classification_type": "U",
        "meta_norad_cat_id": 31323,
        "meta_element_set_no": 999,
        "meta_rev_at_epoch": 63982,
        "meta_bstar": 0.0021568292,
        "meta_mean_motion_dot": 5.29e-05,
        "meta_mean_motion_ddot": 0,
        "tle_line1": "1 31323U 99025BQB 25346.84563309  .00005290  00000+0  21568-2 0  9994",
        "tle_line2": "2 31323  99.4214  25.3246 0031373  79.5452 280.9259 14.27591812639827"
      },
      "geometry": {
        "type": "Point",
        "coordinates": [
          -149.09128579405603,
          -18.252416250736868
        ]
      }
    },
    {
      "type": "Feature",
      "properties": {
        "norad_id": 31324,
        "name": "FENGYUN 1C DEB",
        "group": "fengyun-1c-debris",
        "lat": -71.97904135435289,
        "lon": -53.79875547481944,
        "alt_km": 815.2675311531311,
        "timestamp": "2025-12-20T22:39:10.907465+00:00",
        "meta_object_name": "FENGYUN 1C DEB",
        "meta_object_id": "1999-025BQC",
        "meta_epoch": "2025-12-19T13:03:12.936672",
        "meta_mean_motion": 14.14699081,
        "meta_eccentricity": 0.0049077,
        "meta_inclination": 99.1241,
        "meta_ra_of_asc_node": 275.1678,
        "meta_arg_of_pericenter": 284.7784,
        "meta_mean_anomaly": 74.7954,
        "meta_ephemeris_type": 0,
        "meta_classification_type": "U",
        "meta_norad_cat_id": 31324,
        "meta_element_set_no": 999,
        "meta_rev_at_epoch": 96582,
        "meta_bstar": 0.0001306,
        "meta_mean_motion_dot": 2.07e-06,
        "meta_mean_motion_ddot": 0,
        "tle_line1": "1 31324U 99025BQC 25353.54389973  .00000207  00000+0  13060-3 0  9995",
        "tle_line2": "2 31324  99.1241 275.1678 0049077 284.7784  74.7954 14.14699081965823"
      },
      "geometry": {
        "type": "Point",
        "coordinates": [
          -53.79875547481944,
          -71.97904135435289
        ]
      }
    },
    {
      "type": "Feature",
      "properties": {
        "norad_id": 31325,
        "name": "FENGYUN 1C DEB",
        "group": "fengyun-1c-debris",
        "lat": -78.61145732638185,
        "lon": -142.62907051913,
        "alt_km": 821.3229623367852,
        "timestamp": "2025-12-20T22:39:10.907474+00:00",
        "meta_object_name": "FENGYUN 1C DEB",
        "meta_object_id": "1999-025BQD",
        "meta_epoch": "2025-12-17T00:12:23.735520",
        "meta_mean_motion": 14.16922892,
        "meta_eccentricity": 0.00720914,
        "meta_inclination": 98.9915,
        "meta_ra_of_asc_node": 85.2122,
        "meta_arg_of_pericenter": 208.4071,
        "meta_mean_anomaly": 151.3165,
        "meta_ephemeris_type": 0,
        "meta_classification_type": "U",
        "meta_norad_cat_id": 31325,
        "meta_element_set_no": 999,
        "meta_rev_at_epoch": 59838,
        "meta_bstar": 0.0016097339,
        "meta_mean_motion_dot": 3.269e-05,
        "meta_mean_motion_ddot": 0,
        "tle_line1": "1 31325U 99025BQD 25351.00860805  .00003269  00000+0  16097-2 0  9996",
        "tle_line2": "2 31325  98.9915  85.2122 0072091 208.4071 151.3165 14.16922892598387"
      },
      "geometry": {
        "type": "Point",
        "coordinates": [
          -142.62907051913,
          -78.61145732638185
        ]
      }
    },
    {
      "type": "Feature",
      "properties": {
        "norad_id": 31326,
        "name": "FENGYUN 1C DEB",
        "group": "fengyun-1c-debris",
        "lat": 22.65155725018454,
        "lon": 61.94637549081948,
        "alt_km": 572.5223851418568,
        "timestamp": "2025-12-20T22:39:10.907482+00:00",
        "meta_object_name": "FENGYUN 1C DEB",
        "meta_object_id": "1999-025BQE",
        "meta_epoch": "2025-12-15T15:32:28.923936",
        "meta_mean_motion": 15.00424804,
        "meta_eccentricity": 0.00131933,
        "meta_inclination": 98.9962,
        "meta_ra_of_asc_node": 232.0333,
        "meta_arg_of_pericenter": 356.0949,
        "meta_mean_anomaly": 4.0165,
        "meta_ephemeris_type": 0,
        "meta_classification_type": "U",
        "meta_norad_cat_id": 31326,
        "meta_element_set_no": 999,
        "meta_rev_at_epoch": 73789,
        "meta_bstar": 0.0045407433,
        "meta_mean_motion_dot": 0.00057569,
        "meta_mean_motion_ddot": 0,
        "tle_line1": "1 31326U 99025BQE 25349.64755699  .00057569  00000+0  45407-2 0  9997",
        "tle_line2": "2 31326  98.9962 232.0333 0013193 356.0949   4.0165 15.00424804737897"
      },
      "geometry": {
        "type": "Point",
        "coordinates": [
          61.94637549081948,
          22.65155725018454
        ]
      }
    }
  ]
}